[{"OBJECT_NAME":"STARLINK-30470","OBJECT_ID":"2023-146B","EPOCH":"2026-03-09T22:00:01.999584","MEAN_MOTION":15.12627424,"ECCENTRICITY":0.00017316,"INCLINATION":42.9994,"RA_OF_ASC_NODE":312.1287,"ARG_OF_PERICENTER":249.3024,"MEAN_ANOMALY":345.016,"EPHEMERIS_TYPE":0,"CLASSIFICATION_TYPE":"U","NORAD_CAT_ID":57892,"ELEMENT_SET_NO":999,"REV_AT_EPOCH":573,"BSTAR":0.087605194,"MEAN_MOTION_DOT":0.01705465,"MEAN_MOTION_DDOT":0},{"OBJECT_NAME":"TWILIGHT-1 OBJECT AH","OBJECT_ID":"2026-004AH","EPOCH":"2026-03-09T22:52:54.416640","MEAN_MOTION":15.18463683,"ECCENTRICITY":0.00080362,"INCLINATION":97.4496,"RA_OF_ASC_NODE":69.4327,"ARG_OF_PERICENTER":333.3354,"MEAN_ANOMALY":26.7466,"EPHEMERIS_TYPE":0,"CLASSIFICATION_TYPE":"U","NORAD_CAT_ID":67394,"ELEMENT_SET_NO":999,"REV_AT_EPOCH":870,"BSTAR":0.0001790114,"MEAN_MOTION_DOT":3.623e-5,"MEAN_MOTION_DDOT":0}]
